satname,norad_id,inclination_deg,eccentricity,mean_motion_rev_per_day,perigee_km,apogee_km,l1,l2
STARLINK-1143,45179,53.0494,0.0007405,15.61917763,377.1118335858464,387.1237709480047,1 45179U 20012B   26064.91668981  .00092700  00000+0  10388-2 0  9996,2 45179  53.0494 348.3525 0007405  86.1306 257.0467 15.61917763  5993
STARLINK-1202,45183,53.1617,0.0001406,15.30207762,474.2283155419618,476.15547162683833,1 45183U 20012F   26064.37771855  .00002666  00000+0  10208-3 0  9990,2 45183  53.1617  59.2784 0001406 112.7751 247.3398 15.30207762334296
STARLINK-1216,45185,53.16,0.0001453,15.30190273,474.24831636620183,476.239908917536,1 45185U 20012H   26064.36825142  .00000508  00000+0  29286-4 0  9990,2 45185  53.1600  59.3016 0001453  92.7376 267.3791 15.30190273334232
STARLINK-1225,45187,53.1611,0.0001555,15.30190853,474.1766803548926,476.30808134233666,1 45187U 20012K   26064.36517134  .00000348  00000+0  23904-4 0  9994,2 45187  53.1611  59.7572 0001555 103.5645 256.5529 15.30190853334277
STARLINK-1230,45189,53.1615,0.0001065,15.30176269,474.5560372818154,476.0158163652295,1 45189U 20012M   26064.24401903  .00001255  00000+0  54522-4 0  9997,2 45189  53.1615  60.3806 0001065  77.5275 282.5845 15.30176269331481
STARLINK-1234,45190,53.046,0.0003715,15.61076136,382.0350291428467,387.05970362707103,1 45190U 20012N   26064.17211889  .00118112  00000+0  13625-2 0  9991,2 45190  53.0460 347.3684 0003715 313.9639  46.1067 15.61076136335173
STARLINK-1269,45197,53.1608,0.0001345,15.30194724,474.30904467743494,476.1526006217273,1 45197U 20012V   26064.24083692  .00003045  00000+0  11491-3 0  9993,2 45197  53.1608  60.2546 0001345  78.0727 282.0424 15.30194724334231
STARLINK-1154,45198,53.0504,0.0007158,15.45171765,425.99953177947464,435.7473110988067,1 45198U 20012W   26064.28903024  .00087707  00000+0  18070-2 0  9994,2 45198  53.0504  30.9847 0007158  71.4093 288.7690 15.45171765334611
STARLINK-1199,45201,53.1585,0.0001789,15.29348983,476.53071152378016,478.98375047963236,1 45201U 20012Z   26064.20758502 -.00003119  00000+0 -95797-4 0  9990,2 45201  53.1585  44.6275 0001789 109.0920 251.0274 15.29348983334479
STARLINK-1209,45206,53.048,0.0005812,15.50100618,412.4830233114908,420.3810303482778,1 45206U 20012AE  26064.22762226  .00094843  00000+0  16452-2 0  9996,2 45206  53.0480 354.8739 0005812 268.9699  91.0643 15.50100618334227
STARLINK-1231,45212,53.0526,0.0004529,15.20589388,500.9447084242347,507.1786039670169,1 45212U 20012AL  26064.14566831  .00047581  00000+0  21447-2 0  9995,2 45212  53.0526  36.6520 0004529  60.0663 300.0781 15.20589388334536
STARLINK-1271,45217,53.1612,0.0001471,15.30176589,474.27683296468877,476.2931097086557,1 45217U 20012AR  26064.91668981  .00069063  00000+0  23240-2 0  9996,2 45217  53.1612  41.4857 0001471  89.1730 216.8443 15.30176589  5771
STARLINK-1191,45222,53.1611,0.0001367,15.30203704,474.2671582492212,476.140861681346,1 45222U 20012AW  26064.16275143  .00003277  00000+0  12270-3 0  9990,2 45222  53.1611  19.8548 0001367  99.2493 260.8662 15.30203704334827
STARLINK-1212,45223,53.0505,0.0005975,15.51201977,409.1577006475263,417.2733669254021,1 45223U 20012AX  26064.85769336  .00118632  00000+0  19711-2 0  9997,2 45223  53.0505   8.5231 0005975  96.3199 263.8490 15.51201977335043
STARLINK-1215,45225,53.1607,9.3e-05,15.30214606,474.53410119628825,475.80881656963993,1 45225U 20012AZ  26064.27960220  .00010864  00000+0  37823-3 0  9993,2 45225  53.1607  18.7869 0000930  93.4959 266.6149 15.30214606334802
STARLINK-1221,45227,53.0651,0.0003009,15.41707382,439.01809352077544,443.12189228910574,1 45227U 20012BB  26063.66101924  .00022129  00000+0  52424-3 0  9996,2 45227  53.0651 293.4415 0003009  40.5998 319.5231 15.41707382335932
STARLINK-1222,45228,53.0582,0.0003992,15.49237782,416.24118219833963,421.66798011673563,1 45228U 20012BC  26064.81501252  .00029993  00000+0  54648-3 0  9999,2 45228  53.0582   1.3835 0003992  74.1459 285.9988 15.49237782335029
STARLINK-1226,45229,53.1622,0.0001757,15.30199582,474.0121833143803,476.4204516701466,1 45229U 20012BD  26064.57041195  .00000898  00000+0  42440-4 0  9999,2 45229  53.1622  17.7445 0001757  71.6972 288.4220 15.30199582334787
STARLINK-1227,45230,53.1616,0.0001342,15.31029769,471.8192602639201,473.6580352877836,1 45230U 20012BE  26064.59420067  .00000331  00000+0  22811-4 0  9994,2 45230  53.1616  17.9148 0001342  89.9332 270.1822 15.31029769334906
STARLINK-1246,45235,53.1618,0.0001028,15.30177879,474.57658815099967,475.98565091637556,1 45235U 20012BK  26064.25026050 -.00005184  00000+0 -16315-3 0  9990,2 45235  53.1618  59.8729 0001028  96.3825 263.7293 15.30177879334290
STARLINK-1270,45237,53.0521,0.0003919,15.46258806,425.01462897002784,430.3490297684866,1 45237U 20012BM  26064.83455082  .00104640  00000+0  20722-2 0  9998,2 45237  53.0521   5.9623 0003919  78.4723 281.6723 15.46258806335079
STARLINK-1279,45360,53.0425,8.89e-05,15.56523528,397.1251598954841,398.329908609674,1 45360U 20019A   26064.46023191  .00065297  00000+0  90368-3 0  9991,2 45360  53.0425 119.1949 0000889 134.0956 226.0128 15.56523528330016
STARLINK-1301,45361,53.042,0.0001502,15.64328992,374.1549118344228,376.1836050344573,1 45361U 20019B   26064.91668981  .00122506  00000+0  12443-2 0  9998,2 45361  53.0420 122.5825 0001502 187.1668 314.3325 15.64328992  5932
STARLINK-1262,45366,53.1342,0.0001374,15.24701392,490.73832931050583,492.6261556383379,1 45366U 20019G   26064.91668981  .00820486  00000+0  30581-1 0  9997,2 45366  53.1342 182.5529 0001374  95.5876 133.7382 15.24701392  5737
STARLINK-1273,45367,53.0521,0.0001245,15.4363488,434.54387846134887,436.24044722289636,1 45367U 20019H   26064.58584925  .00045360  00000+0  99513-3 0  9998,2 45367  53.0521 174.3264 0001245 337.2209  22.8741 15.43634880329266
STARLINK-1276,45368,53.0563,0.0001749,15.06415336,545.953320463731,548.3757909479164,1 45368U 20019J   26064.70384395  .00002327  00000+0  17498-3 0  9990,2 45368  53.0563 184.5083 0001749 117.4726 242.6441 15.06415336329133
STARLINK-1277,45369,53.052,0.000288,15.48014338,420.5768182106631,424.49400551989766,1 45369U 20019K   26064.56350784  .00082869  00000+0  15506-2 0  9996,2 45369  53.0520 172.3688 0002880 359.3868   0.7135 15.48014338329297
STARLINK-1281,45370,53.1369,0.0001138,15.2520886,489.3767269201335,490.93995093927424,1 45370U 20019L   26064.91668981  .01368900  00000+0  49534-1 0  9999,2 45370  53.1369 182.7477 0001138 101.5697 120.1451 15.25208860  5530
STARLINK-1300,45374,53.1489,0.000106,15.27861383,481.4794669956791,482.93385985232544,1 45374U 20019Q   26064.91668981  .00954173  00000+0  31975-1 0  9995,2 45374  53.1489 182.7365 0001060  90.2902  17.8727 15.27861383  5737
STARLINK-1302,45375,53.0532,0.000273,15.51787366,409.6538947579693,413.3610406373309,1 45375U 20019R   26064.91668981  .01179686  00000+0  17706-1 0  9991,2 45375  53.0532 169.9527 0002730 285.6566 114.4447 15.51787366  5798
STARLINK-1304,45376,53.0538,0.0001893,15.47455178,422.88587993714646,425.4612347141501,1 45376U 20019S   26064.51302360  .00099577  00000+0  18941-2 0  9996,2 45376  53.0538 169.4747 0001893 299.5443  60.5375 15.47455178329328
STARLINK-1305,45377,53.0447,0.0002676,15.5223008,408.3998527787562,412.0329795270809,1 45377U 20019T   26064.91668981  .00082628  00000+0  13323-2 0  9993,2 45377  53.0447 150.4382 0002676 101.2725 283.5966 15.52230080  5902
STARLINK-1319,45379,53.0449,0.0001889,15.64797953,372.54446152067976,375.0953508398352,1 45379U 20019V   26064.91668981 -.00072251  00000+0 -72880-3 0  9992,2 45379  53.0449 148.2303 0001889  56.1590  21.2625 15.64797953  5928
STARLINK-1266,45383,53.0506,0.0003413,15.44739873,429.81816270710897,434.46685950139,1 45383U 20019Z   26064.64843314  .00088724  00000+0  18559-2 0  9994,2 45383  53.0506 152.2118 0003413 356.9312   3.1672 15.44739873329570
STARLINK-1267,45384,53.0517,0.0003499,15.48908197,417.54012167498695,422.2974010968046,1 45384U 20019AA  26064.55586292  .00103293  00000+0  18664-2 0  9990,2 45384  53.0517 146.8216 0003499 239.0460 121.0203 15.48908197329649
STARLINK-1272,45386,53.0441,0.000202,15.55510825,399.2988118834064,402.037449156137,1 45386U 20019AC  26064.55734315  .00119634  00000+0  17012-2 0  9995,2 45386  53.0441 129.7929 0002020 118.2149 241.9065 15.55510825329888
STARLINK-1274,45387,53.0264,0.0004162,15.46280774,424.7848141016266,430.44992403844117,1 45387U 20019AD  26064.58661896  .00077545  00000+0  15420-2 0  9997,2 45387  53.0264 122.5333 0004162 223.3335 136.7344 15.46280774329985
STARLINK-1280,45388,53.0433,0.0001203,15.64948517,372.57461953115217,374.19903616413285,1 45388U 20019AE  26064.50041029  .00064563  00000+0  64703-3 0  9995,2 45388  53.0433 143.0568 0001203 101.1513 258.9637 15.64948517329681
STARLINK-1283,45389,53.0441,0.0004053,15.55367138,398.3379955234368,403.8332333747094,1 45389U 20019AF  26064.41655754  .00111006  00000+0  15888-2 0  9996,2 45389  53.0441 130.6870 0004053 226.4308 133.6366 15.55367138329860
STARLINK-1284,45390,53.0496,0.0003261,15.50975328,411.66226994794124,416.09202157380696,1 45390U 20019AG  26064.55532521  .00106352  00000+0  17857-2 0  9995,2 45390  53.0496 150.8676 0003261 359.3104   0.7899 15.50975328329585
STARLINK-1297,45395,53.0485,0.0003994,15.53334511,404.28834255353286,409.708308651625,1 45395U 20019AM  26064.91668981  .00080376  00000+0  12458-2 0  9999,2 45395  53.0485 148.9079 0003994   3.6512 122.4249 15.53334511  5902
STARLINK-1307,45397,53.0556,0.0001678,15.49779879,416.22916778591116,418.5097397517975,1 45397U 20019AP  26064.62034002  .00028803  00000+0  51539-3 0  9991,2 45397  53.0556 150.2657 0001678  37.5832 322.5293 15.49779879329422
STARLINK-1255,45399,53.0411,0.0001818,15.50995616,412.58313901131714,415.05269381892595,1 45399U 20019AR  26064.56613962  .00091602  00000+0  15410-2 0  9998,2 45399  53.0411 122.5724 0001818 294.7199  65.3620 15.50995616329797
